GLOBALSTAR M057         
1 25943U 99058A   24168.59412112 -.00000082  00000+0  96458-4 0  9996
2 25943  52.0001 305.7222 0001630 356.0735   4.0101 12.24787485122136
GLOBALSTAR M059         
1 25944U 99058B   24168.60707002 -.00000071  00000+0  18687-3 0  9999
2 25944  52.0005 116.1690 0000787 336.6496 193.7848 11.99963057530155
GLOBALSTAR M056         
1 25945U 99058C   24168.23293319 -.00000028  00000+0  69889-3 0  9992
2 25945  51.9942 128.5380 0000477 164.3635 332.0177 12.04776811118516
GLOBALSTAR M031         
1 25946U 99058D   24168.41238819  .00000035  00000+0  12741-2 0  9998
2 25946  51.9981  42.2695 0001653 126.0333  45.4377 12.16010927120048
GLOBALSTAR M039         
1 25961U 99062A   24168.58562128 -.00000054  00000+0  27658-3 0  9997
2 25961  51.9861 302.2387 0002201 243.2119 116.8522 12.62294423134049
GLOBALSTAR M034         
1 25962U 99062B   24168.52326751 -.00000024  00000+0  90515-3 0  9991
2 25962  51.9861 241.8891 0013834  72.8143  29.3136 11.79428202 95243
GLOBALSTAR M029         
1 25963U 99062C   24168.25853553 -.00000074  00000+0  14842-3 0  9991
2 25963  51.9828   5.4640 0003333 110.6392  61.4978 11.99879229125193
GLOBALSTAR M061         
1 25964U 99062D   24168.47848653 -.00000088  00000+0 -13342-3 0  9991
2 25964  51.9809  61.1907 0006505   2.9208 167.5680 11.76761773 78128
